OBJECT_NAME,OBJECT_ID,EPOCH,MEAN_MOTION,ECCENTRICITY,INCLINATION,RA_OF_ASC_NODE,ARG_OF_PERICENTER,MEAN_ANOMALY,EPHEMERIS_TYPE,CLASSIFICATION_TYPE,NORAD_CAT_ID,ELEMENT_SET_NO,REV_AT_EPOCH,BSTAR,MEAN_MOTION_DOT,MEAN_MOTION_DDOT
KUIPER-00608,2026-118AA,2026-06-03T14:00:16.999776,15.36200046,.00095864,51.8596,119.0864,131.3179,76.1244,0,U,69291,999,137,-.38204396E-3,-.14074E-3,0
KUIPER-00610,2026-118AB,2026-06-03T14:00:16.999776,15.38000483,.00029679,51.8711,119.0134,87.6359,148.9445,0,U,69292,999,130,-.37700888E-3,-.14685E-3,0
KUIPER-00613,2026-118AC,2026-06-03T14:00:16.999776,15.35943638,.00100248,51.8626,119.0924,132.4428,71.6299,0,U,69293,999,130,.89445935E-4,.2793E-4,0
KUIPER-00618,2026-118AD,2026-06-03T14:00:16.999776,15.38397726,.00022657,51.8710,118.9990,48.8655,194.2628,0,U,69294,999,130,-.36643374E-3,-.14465E-3,0
KUIPER-00620,2026-118AE,2026-06-03T14:00:16.999776,15.38093210,.00030547,51.8707,119.0123,75.4896,162.5466,0,U,69295,999,183,-.37307421E-3,-.14579E-3,0
STARLINK-37501,2026-119A,2026-06-03T14:00:16.999776,15.96998158,.00013707,97.2835,179.5914,100.2986,67.9846,0,U,69296,999,170,-.54240331E-2,-.2299639E-1,.15038489E-2
STARLINK-37496,2026-119B,2026-06-03T14:00:16.999776,15.97146614,.00013859,97.2832,179.5920,99.9944,69.3563,0,U,69297,999,170,-.53142715E-2,-.2271629E-1,.14710856E-2
STARLINK-37519,2026-119C,2026-06-03T14:00:16.999776,15.97531907,.00014029,97.2832,179.5934,94.8535,77.7950,0,U,69298,999,170,-.51657282E-2,-.2255295E-1,.14572893E-2
STARLINK-37455,2026-119D,2026-06-03T14:00:16.999776,15.97330434,.00014365,97.2831,179.5924,94.7707,75.8083,0,U,69299,999,170,-.52312138E-2,-.2258812E-1,.14582088E-2
STARLINK-37456,2026-119E,2026-06-03T14:00:16.999776,15.97674015,.00013778,97.2831,179.5937,94.1850,79.4219,0,U,69300,999,170,-.50599949E-2,-.2226647E-1,.1424069E-2
STARLINK-37630,2026-119F,2026-06-03T14:00:16.999776,15.97848131,.00013823,97.2830,179.5942,97.6840,77.1176,0,U,69301,999,186,-.49795E-2,-.2212419E-1,.14094378E-2
STARLINK-37804,2026-119G,2026-06-03T14:00:16.999776,15.98030069,.0001398,97.2830,179.5945,95.6667,80.3932,0,U,69302,999,186,-.49016129E-2,-.2199863E-1,.13970417E-2
STARLINK-37730,2026-119H,2026-06-03T14:00:16.999776,15.98212043,.00014368,97.2830,179.5952,100.9406,76.3362,0,U,69303,999,186,-.48495546E-2,-.2198503E-1,.1398393E-2
STARLINK-37731,2026-119J,2026-06-03T14:00:16.999776,15.98360410,.00014371,97.2828,179.5955,96.6813,81.6504,0,U,69304,999,186,-.47554988E-2,-.2173844E-1,.13707052E-2
STARLINK-37734,2026-119K,2026-06-03T14:00:16.999776,15.98538739,.00014184,97.2831,179.5959,98.5046,81.0937,0,U,69305,999,186,-.46842748E-2,-.2162651E-1,.13600166E-2
STARLINK-37701,2026-119L,2026-06-03T14:00:16.999776,15.98665803,.00015383,97.2830,179.5966,88.9869,91.5112,0,U,69306,999,186,-.45980854E-2,-.2138155E-1,.1332532E-2
STARLINK-37732,2026-119M,2026-06-03T14:00:16.999776,15.98831804,.00013663,97.2828,179.5970,101.9953,79.6408,0,U,69307,999,186,-.45478122E-2,-.2134374E-1,.13306242E-2
STARLINK-37689,2026-119N,2026-06-03T14:00:16.999776,15.98966175,.00013346,97.2825,179.5972,101.3733,81.2249,0,U,69308,999,186,-.44692507E-2,-.2113454E-1,.13077619E-2
STARLINK-37619,2026-119P,2026-06-03T14:00:16.999776,15.99111659,.00013766,97.2826,179.5976,98.2556,85.4083,0,U,69309,999,186,-.43942045E-2,-.2095101E-1,.12882782E-2
STARLINK-37794,2026-119Q,2026-06-03T14:00:16.999776,15.99246837,.00013263,97.2826,179.5982,102.2178,82.4082,0,U,69310,999,186,-.43289889E-2,-.2079802E-1,.12723442E-2
STARLINK-37795,2026-119R,2026-06-03T14:00:16.999776,15.99396524,.00014238,97.2826,179.5983,95.7868,89.9316,0,U,69311,999,186,-.42553184E-2,-.2061832E-1,.1253603E-2
STARLINK-37790,2026-119S,2026-06-03T14:00:16.999776,15.99532828,.00014405,97.2824,179.5989,95.2611,91.4755,0,U,69312,999,186,-.41950491E-2,-.2048378E-1,.12400056E-2
STARLINK-37676,2026-119T,2026-06-03T14:00:16.999776,15.99683337,.00014262,97.2825,179.5995,97.4476,90.3753,0,U,69313,999,186,-.41421449E-2,-.2039815E-1,.1232316E-2
STARLINK-37617,2026-119U,2026-06-03T14:00:16.999776,15.99843186,.00013085,97.2824,179.5994,99.8067,89.2232,0,U,69314,999,186,-.407002E-2,-.2022564E-1,.12147863E-2
STARLINK-37627,2026-119V,2026-06-03T14:00:16.999776,15.99977468,.00013568,97.2825,179.6002,98.9583,91.0399,0,U,69315,999,186,-.40248137E-2,-.2015403E-1,.1208518E-2
STARLINK-37738,2026-119W,2026-06-03T14:00:16.999776,16.00120745,.00013,97.2824,179.6006,98.1040,92.9427,0,U,69316,999,186,-.39771986E-2,-.2007818E-1,.12019033E-2
STARLINK-37799,2026-119X,2026-06-03T14:00:16.999776,16.00264410,.00014437,97.2824,179.6014,90.0521,102.1247,0,U,69317,999,181,-.39059655E-2,-.1988216E-1,.11816452E-2
STARLINK-37802,2026-119Y,2026-06-03T14:00:16.999776,16.00404370,.00014363,97.2827,179.6017,97.4345,95.7749,0,U,69318,999,186,-.38544284E-2,-.1977732E-1,.11717524E-2
STARLINK-37803,2026-119Z,2026-06-03T14:00:16.999776,16.00507502,.00012887,97.2827,179.6022,99.5113,94.5091,0,U,69319,999,181,-.38004709E-2,-.1961631E-1,.11550744E-2
