KUIPER-00608            
1 69291U 26118AA  26154.58353009 -.00014074  00000+0 -38204-3 0  9993
2 69291  51.8596 119.0864 0009586 131.3179  76.1244 15.36200046  1377
KUIPER-00610            
1 69292U 26118AB  26154.58353009 -.00014685  00000+0 -37701-3 0  9993
2 69292  51.8711 119.0134 0002967  87.6359 148.9445 15.38000483  1305
KUIPER-00613            
1 69293U 26118AC  26154.58353009  .00002793  00000+0  89446-4 0  9993
2 69293  51.8626 119.0924 0010024 132.4428  71.6299 15.35943638  1301
KUIPER-00618            
1 69294U 26118AD  26154.58353009 -.00014465  00000+0 -36643-3 0  9995
2 69294  51.8710 118.9990 0002265  48.8655 194.2628 15.38397726  1309
KUIPER-00620            
1 69295U 26118AE  26154.58353009 -.00014579  00000+0 -37307-3 0  9990
2 69295  51.8707 119.0123 0003054  75.4896 162.5466 15.38093210  1833
STARLINK-37501          
1 69296U 26119A   26154.58353009 -.02299639  15038-2 -54240-2 0  9990
2 69296  97.2835 179.5914 0001370 100.2986  67.9846 15.96998158  1700
STARLINK-37496          
1 69297U 26119B   26154.58353009 -.02271629  14711-2 -53143-2 0  9998
2 69297  97.2832 179.5920 0001385  99.9944  69.3563 15.97146614  1704
STARLINK-37519          
1 69298U 26119C   26154.58353009 -.02255295  14573-2 -51657-2 0  9994
2 69298  97.2832 179.5934 0001402  94.8535  77.7950 15.97531907  1706
STARLINK-37455          
1 69299U 26119D   26154.58353009 -.02258812  14582-2 -52312-2 0  9992
2 69299  97.2831 179.5924 0001436  94.7707  75.8083 15.97330434  1700
STARLINK-37456          
1 69300U 26119E   26154.58353009 -.02226647  14241-2 -50600-2 0  9996
2 69300  97.2831 179.5937 0001377  94.1850  79.4219 15.97674015  1701
STARLINK-37630          
1 69301U 26119F   26154.58353009 -.02212419  14094-2 -49795-2 0  9998
2 69301  97.2830 179.5942 0001382  97.6840  77.1176 15.97848131  1866
STARLINK-37804          
1 69302U 26119G   26154.58353009 -.02199863  13970-2 -49016-2 0  9994
2 69302  97.2830 179.5945 0001398  95.6667  80.3932 15.98030069  1862
STARLINK-37730          
1 69303U 26119H   26154.58353009 -.02198503  13984-2 -48496-2 0  9991
2 69303  97.2830 179.5952 0001436 100.9406  76.3362 15.98212043  1861
STARLINK-37731          
1 69304U 26119J   26154.58353009 -.02173844  13707-2 -47555-2 0  9991
2 69304  97.2828 179.5955 0001437  96.6813  81.6504 15.98360410  1865
STARLINK-37734          
1 69305U 26119K   26154.58353009 -.02162651  13600-2 -46843-2 0  9997
2 69305  97.2831 179.5959 0001418  98.5046  81.0937 15.98538739  1867
STARLINK-37701          
1 69306U 26119L   26154.58353009 -.02138155  13325-2 -45981-2 0  9996
2 69306  97.2830 179.5966 0001538  88.9869  91.5112 15.98665803  1868
STARLINK-37732          
1 69307U 26119M   26154.58353009 -.02134374  13306-2 -45478-2 0  9996
2 69307  97.2828 179.5970 0001366 101.9953  79.6408 15.98831804  1861
STARLINK-37689          
1 69308U 26119N   26154.58353009 -.02113454  13078-2 -44693-2 0  9997
2 69308  97.2825 179.5972 0001334 101.3733  81.2249 15.98966175  1868
STARLINK-37619          
1 69309U 26119P   26154.58353009 -.02095101  12883-2 -43942-2 0  9995
2 69309  97.2826 179.5976 0001376  98.2556  85.4083 15.99111659  1869
STARLINK-37794          
1 69310U 26119Q   26154.58353009 -.02079802  12723-2 -43290-2 0  9996
2 69310  97.2826 179.5982 0001326 102.2178  82.4082 15.99246837  1862
STARLINK-37795          
1 69311U 26119R   26154.58353009 -.02061832  12536-2 -42553-2 0  9994
2 69311  97.2826 179.5983 0001423  95.7868  89.9316 15.99396524  1865
STARLINK-37790          
1 69312U 26119S   26154.58353009 -.02048378  12400-2 -41950-2 0  9995
2 69312  97.2824 179.5989 0001440  95.2611  91.4755 15.99532828  1864
STARLINK-37676          
1 69313U 26119T   26154.58353009 -.02039815  12323-2 -41421-2 0  9999
2 69313  97.2825 179.5995 0001426  97.4476  90.3753 15.99683337  1868
STARLINK-37617          
1 69314U 26119U   26154.58353009 -.02022564  12148-2 -40700-2 0  9997
2 69314  97.2824 179.5994 0001308  99.8067  89.2232 15.99843186  1867
STARLINK-37627          
1 69315U 26119V   26154.58353009 -.02015403  12085-2 -40248-2 0  9999
2 69315  97.2825 179.6002 0001356  98.9583  91.0399 15.99977468  1862
STARLINK-37738          
1 69316U 26119W   26154.58353009 -.02007818  12019-2 -39772-2 0  9998
2 69316  97.2824 179.6006 0001300  98.1040  92.9427 16.00120745  1868
STARLINK-37799          
1 69317U 26119X   26154.58353009 -.01988216  11816-2 -39060-2 0  9992
2 69317  97.2824 179.6014 0001443  90.0521 102.1247 16.00264410  1818
STARLINK-37802          
1 69318U 26119Y   26154.58353009 -.01977732  11718-2 -38544-2 0  9991
2 69318  97.2827 179.6017 0001436  97.4345  95.7749 16.00404370  1862
STARLINK-37803          
1 69319U 26119Z   26154.58353009 -.01961631  11551-2 -38005-2 0  9990
2 69319  97.2827 179.6022 0001288  99.5113  94.5091 16.00507502  1813
